[{"OBJECT_NAME":"STARLINK-31600","OBJECT_ID":"2024-057X","EPOCH":"2026-01-14T09:03:37.996704","MEAN_MOTION":15.27565425,"ECCENTRICITY":9.019e-5,"INCLINATION":43.0026,"RA_OF_ASC_NODE":141.506,"ARG_OF_PERICENTER":232.6982,"MEAN_ANOMALY":127.3787,"EPHEMERIS_TYPE":0,"CLASSIFICATION_TYPE":"U","NORAD_CAT_ID":59341,"ELEMENT_SET_NO":999,"REV_AT_EPOCH":10144,"BSTAR":-3.1346786e-5,"MEAN_MOTION_DOT":-1.124e-5,"MEAN_MOTION_DDOT":0},{"OBJECT_NAME":"STARLINK-31628","OBJECT_ID":"2024-057Y","EPOCH":"2026-01-14T14:09:29.048256","MEAN_MOTION":15.27569693,"ECCENTRICITY":0.00012,"INCLINATION":43.0028,"RA_OF_ASC_NODE":132.7317,"ARG_OF_PERICENTER":249.2216,"MEAN_ANOMALY":110.8508,"EPHEMERIS_TYPE":0,"CLASSIFICATION_TYPE":"U","NORAD_CAT_ID":59342,"ELEMENT_SET_NO":999,"REV_AT_EPOCH":10156,"BSTAR":-3.4772e-5,"MEAN_MOTION_DOT":-1.218e-5,"MEAN_MOTION_DDOT":0},{"OBJECT_NAME":"STARLINK-31605","OBJECT_ID":"2024-060A","EPOCH":"2026-01-14T19:04:54.763392","MEAN_MOTION":15.27571128,"ECCENTRICITY":0.0001541,"INCLINATION":43.0012,"RA_OF_ASC_NODE":193.5589,"ARG_OF_PERICENTER":274.2723,"MEAN_ANOMALY":85.7953,"EPHEMERIS_TYPE":0,"CLASSIFICATION_TYPE":"U","NORAD_CAT_ID":59348,"ELEMENT_SET_NO":999,"REV_AT_EPOCH":10188,"BSTAR":0.00014255,"MEAN_MOTION_DOT":3.662e-5,"MEAN_MOTION_DDOT":0},{"OBJECT_NAME":"STARLINK-31532","OBJECT_ID":"2024-060B","EPOCH":"2026-01-14T22:44:25.395360","MEAN_MOTION":15.27575739,"ECCENTRICITY":5.06e-5,"INCLINATION":43.0005,"RA_OF_ASC_NODE":203.3655,"ARG_OF_PERICENTER":234.2978,"MEAN_ANOMALY":125.7827,"EPHEMERIS_TYPE":0,"CLASSIFICATION_TYPE":"U","NORAD_CAT_ID":59349,"ELEMENT_SET_NO":999,"REV_AT_EPOCH":10189,"BSTAR":7.0491e-5,"MEAN_MOTION_DOT":1.678e-5,"MEAN_MOTION_DDOT":0},{"OBJECT_NAME":"STARLINK-31593","OBJECT_ID":"2024-060C","EPOCH":"2026-01-14T18:53:33.964224","MEAN_MOTION":15.27569235,"ECCENTRICITY":0.000156,"INCLINATION":43.0014,"RA_OF_ASC_NODE":203.8838,"ARG_OF_PERICENTER":272.708,"MEAN_ANOMALY":87.3593,"EPHEMERIS_TYPE":0,"CLASSIFICATION_TYPE":"U","NORAD_CAT_ID":59350,"ELEMENT_SET_NO":999,"REV_AT_EPOCH":10182,"BSTAR":0.00010036,"MEAN_MOTION_DOT":2.5e-5,"MEAN_MOTION_DDOT":0},{"OBJECT_NAME":"STARLINK-31555","OBJECT_ID":"2024-060D","EPOCH":"2026-01-14T19:47:12.454080","MEAN_MOTION":15.27577374,"ECCENTRICITY":8.69e-5,"INCLINATION":42.9962,"RA_OF_ASC_NODE":204.1589,"ARG_OF_PERICENTER":293.928,"MEAN_ANOMALY":66.148,"EPHEMERIS_TYPE":0,"CLASSIFICATION_TYPE":"U","NORAD_CAT_ID":59351,"ELEMENT_SET_NO":999,"REV_AT_EPOCH":10187,"BSTAR":5.8993e-5,"MEAN_MOTION_DOT":1.362e-5,"MEAN_MOTION_DDOT":0},{"OBJECT_NAME":"STARLINK-31561","OBJECT_ID":"2024-060E","EPOCH":"2026-01-14T18:49:50.740320","MEAN_MOTION":15.27578902,"ECCENTRICITY":0.0001559,"INCLINATION":43.0016,"RA_OF_ASC_NODE":203.8656,"ARG_OF_PERICENTER":269.138,"MEAN_ANOMALY":90.9293,"EPHEMERIS_TYPE":0,"CLASSIFICATION_TYPE":"U","NORAD_CAT_ID":59352,"ELEMENT_SET_NO":999,"REV_AT_EPOCH":10182,"BSTAR":7.869e-5,"MEAN_MOTION_DOT":1.904e-5,"MEAN_MOTION_DDOT":0},{"OBJECT_NAME":"STARLINK-31413","OBJECT_ID":"2024-060F","EPOCH":"2026-01-14T14:27:44.457696","MEAN_MOTION":15.27577839,"ECCENTRICITY":0.0001352,"INCLINATION":43.0011,"RA_OF_ASC_NODE":205.0755,"ARG_OF_PERICENTER":252.5568,"MEAN_ANOMALY":107.5136,"EPHEMERIS_TYPE":0,"CLASSIFICATION_TYPE":"U","NORAD_CAT_ID":59353,"ELEMENT_SET_NO":999,"REV_AT_EPOCH":10179,"BSTAR":2.6157e-5,"MEAN_MOTION_DOT":4.58e-6,"MEAN_MOTION_DDOT":0},{"OBJECT_NAME":"STARLINK-31422","OBJECT_ID":"2024-060G","EPOCH":"2026-01-14T14:02:02.620320","MEAN_MOTION":15.2756732,"ECCENTRICITY":0.0001279,"INCLINATION":43.0022,"RA_OF_ASC_NODE":205.8075,"ARG_OF_PERICENTER":262.5929,"MEAN_ANOMALY":97.4777,"EPHEMERIS_TYPE":0,"CLASSIFICATION_TYPE":"U","NORAD_CAT_ID":59354,"ELEMENT_SET_NO":999,"REV_AT_EPOCH":10178,"BSTAR":5.3467e-5,"MEAN_MOTION_DOT":1.209e-5,"MEAN_MOTION_DDOT":0},{"OBJECT_NAME":"STARLINK-31416","OBJECT_ID":"2024-060H","EPOCH":"2026-01-14T19:41:39.591168","MEAN_MOTION":15.27579735,"ECCENTRICITY":8.82e-5,"INCLINATION":42.999,"RA_OF_ASC_NODE":204.1306,"ARG_OF_PERICENTER":262.6266,"MEAN_ANOMALY":97.4485,"EPHEMERIS_TYPE":0,"CLASSIFICATION_TYPE":"U","NORAD_CAT_ID":59355,"ELEMENT_SET_NO":999,"REV_AT_EPOCH":10182,"BSTAR":2.9485e-5,"MEAN_MOTION_DOT":5.5e-6,"MEAN_MOTION_DDOT":0},{"OBJECT_NAME":"STARLINK-31552","OBJECT_ID":"2024-060J","EPOCH":"2026-01-14T12:22:21.060192","MEAN_MOTION":15.27565508,"ECCENTRICITY":0.00011954,"INCLINATION":43.0027,"RA_OF_ASC_NODE":206.1617,"ARG_OF_PERICENTER":282.5063,"MEAN_ANOMALY":77.5655,"EPHEMERIS_TYPE":0,"CLASSIFICATION_TYPE":"U","NORAD_CAT_ID":59356,"ELEMENT_SET_NO":999,"REV_AT_EPOCH":10177,"BSTAR":8.9059211e-5,"MEAN_MOTION_DOT":2.188e-5,"MEAN_MOTION_DDOT":0},{"OBJECT_NAME":"STARLINK-31557","OBJECT_ID":"2024-060K","EPOCH":"2026-01-14T13:47:43.688544","MEAN_MOTION":15.27567491,"ECCENTRICITY":0.0001347,"INCLINATION":43.0027,"RA_OF_ASC_NODE":201.3762,"ARG_OF_PERICENTER":263.2966,"MEAN_ANOMALY":96.7733,"EPHEMERIS_TYPE":0,"CLASSIFICATION_TYPE":"U","NORAD_CAT_ID":59357,"ELEMENT_SET_NO":999,"REV_AT_EPOCH":10183,"BSTAR":3.3015e-5,"MEAN_MOTION_DOT":6.46e-6,"MEAN_MOTION_DDOT":0},{"OBJECT_NAME":"STARLINK-31559","OBJECT_ID":"2024-060L","EPOCH":"2026-01-14T13:04:40.896192","MEAN_MOTION":15.2757371,"ECCENTRICITY":0.0001207,"INCLINATION":43.0011,"RA_OF_ASC_NODE":205.5019,"ARG_OF_PERICENTER":281.0768,"MEAN_ANOMALY":78.9948,"EPHEMERIS_TYPE":0,"CLASSIFICATION_TYPE":"U","NORAD_CAT_ID":59358,"ELEMENT_SET_NO":999,"REV_AT_EPOCH":10178,"BSTAR":6.2966e-5,"MEAN_MOTION_DOT":1.471e-5,"MEAN_MOTION_DDOT":0},{"OBJECT_NAME":"STARLINK-31501","OBJECT_ID":"2024-060M","EPOCH":"2026-01-14T13:45:23.505408","MEAN_MOTION":15.27569843,"ECCENTRICITY":0.0001161,"INCLINATION":43.0027,"RA_OF_ASC_NODE":205.7196,"ARG_OF_PERICENTER":258.7626,"MEAN_ANOMALY":101.3095,"EPHEMERIS_TYPE":0,"CLASSIFICATION_TYPE":"U","NORAD_CAT_ID":59359,"ELEMENT_SET_NO":999,"REV_AT_EPOCH":10178,"BSTAR":4.1366e-5,"MEAN_MOTION_DOT":8.76e-6,"MEAN_MOTION_DDOT":0},{"OBJECT_NAME":"STARLINK-31549","OBJECT_ID":"2024-060N","EPOCH":"2026-01-14T19:04:40.154880","MEAN_MOTION":15.27565484,"ECCENTRICITY":0.0001477,"INCLINATION":43.0008,"RA_OF_ASC_NODE":203.9387,"ARG_OF_PERICENTER":279.5432,"MEAN_ANOMALY":80.5252,"EPHEMERIS_TYPE":0,"CLASSIFICATION_TYPE":"U","NORAD_CAT_ID":59360,"ELEMENT_SET_NO":999,"REV_AT_EPOCH":10182,"BSTAR":6.5458e-5,"MEAN_MOTION_DOT":1.539e-5,"MEAN_MOTION_DDOT":0},{"OBJECT_NAME":"STARLINK-31560","OBJECT_ID":"2024-060P","EPOCH":"2026-01-14T19:52:46.924896","MEAN_MOTION":15.27568675,"ECCENTRICITY":0.0001121,"INCLINATION":43.0012,"RA_OF_ASC_NODE":204.1883,"ARG_OF_PERICENTER":267.4501,"MEAN_ANOMALY":92.6222,"EPHEMERIS_TYPE":0,"CLASSIFICATION_TYPE":"U","NORAD_CAT_ID":59361,"ELEMENT_SET_NO":999,"REV_AT_EPOCH":10182,"BSTAR":6.4669e-5,"MEAN_MOTION_DOT":1.517e-5,"MEAN_MOTION_DDOT":0},{"OBJECT_NAME":"STARLINK-31571","OBJECT_ID":"2024-060Q","EPOCH":"2026-01-14T19:56:27.672576","MEAN_MOTION":15.27574993,"ECCENTRICITY":0.000117,"INCLINATION":43.0014,"RA_OF_ASC_NODE":204.2064,"ARG_OF_PERICENTER":264.0964,"MEAN_ANOMALY":95.9754,"EPHEMERIS_TYPE":0,"CLASSIFICATION_TYPE":"U","NORAD_CAT_ID":59362,"ELEMENT_SET_NO":999,"REV_AT_EPOCH":10182,"BSTAR":1.5172e-5,"MEAN_MOTION_DOT":1.55e-6,"MEAN_MOTION_DDOT":0}]
