STARLINK-31600          
1 59341U 24057X   26014.37752311 -.00001124  00000+0 -31347-4 0  9993
2 59341  43.0026 141.5060 0000901 232.6982 127.3787 15.27565425101445
STARLINK-31628          
1 59342U 24057Y   26014.58991954 -.00001218  00000+0 -34772-4 0  9994
2 59342  43.0028 132.7317 0001200 249.2216 110.8508 15.27569693101564
STARLINK-31605          
1 59348U 24060A   26014.79507828  .00003662  00000+0  14255-3 0  9996
2 59348  43.0012 193.5589 0001541 274.2723  85.7953 15.27571128101883
STARLINK-31532          
1 59349U 24060B   26014.94751615  .00001678  00000+0  70491-4 0  9999
2 59349  43.0005 203.3655 0000506 234.2978 125.7827 15.27575739101896
STARLINK-31593          
1 59350U 24060C   26014.78719866  .00002500  00000+0  10036-3 0  9998
2 59350  43.0014 203.8838 0001560 272.7080  87.3593 15.27569235101828
STARLINK-31555          
1 59351U 24060D   26014.82444970  .00001362  00000+0  58993-4 0  9995
2 59351  42.9962 204.1589 0000869 293.9280  66.1480 15.27577374101872
STARLINK-31561          
1 59352U 24060E   26014.78461505  .00001904  00000+0  78690-4 0  9992
2 59352  43.0016 203.8656 0001559 269.1380  90.9293 15.27578902101829
STARLINK-31413          
1 59353U 24060F   26014.60259789  .00000458  00000+0  26157-4 0  9997
2 59353  43.0011 205.0755 0001352 252.5568 107.5136 15.27577839101799
STARLINK-31422          
1 59354U 24060G   26014.58475255  .00001209  00000+0  53467-4 0  9992
2 59354  43.0022 205.8075 0001279 262.5929  97.4777 15.27567320101786
STARLINK-31416          
1 59355U 24060H   26014.82059712  .00000550  00000+0  29485-4 0  9997
2 59355  42.9990 204.1306 0000882 262.6266  97.4485 15.27579735101826
STARLINK-31552          
1 59356U 24060J   26014.51552153  .00002188  00000+0  89059-4 0  9993
2 59356  43.0027 206.1617 0001195 282.5063  77.5655 15.27565508101776
STARLINK-31557          
1 59357U 24060K   26014.57481121  .00000646  00000+0  33015-4 0  9994
2 59357  43.0027 201.3762 0001347 263.2966  96.7733 15.27567491101832
STARLINK-31559          
1 59358U 24060L   26014.54491778  .00001471  00000+0  62966-4 0  9995
2 59358  43.0011 205.5019 0001207 281.0768  78.9948 15.27573710101785
STARLINK-31501          
1 59359U 24060M   26014.57318872  .00000876  00000+0  41366-4 0  9991
2 59359  43.0027 205.7196 0001161 258.7626 101.3095 15.27569843101780
STARLINK-31549          
1 59360U 24060N   26014.79490920  .00001539  00000+0  65458-4 0  9997
2 59360  43.0008 203.9387 0001477 279.5432  80.5252 15.27565484101824
STARLINK-31560          
1 59361U 24060P   26014.82832089  .00001517  00000+0  64669-4 0  9997
2 59361  43.0012 204.1883 0001121 267.4501  92.6222 15.27568675101829
STARLINK-31571          
1 59362U 24060Q   26014.83087584  .00000155  00000+0  15172-4 0  9993
2 59362  43.0014 204.2064 0001170 264.0964  95.9754 15.27574993101820
